NORAD_CAT_ID,OBJECT_NAME,OBJECT_TYPE,EPOCH,MEAN_MOTION,ECCENTRICITY,INCLINATION,RA_OF_ASC_NODE,ARG_OF_PERICENTER,MEAN_ANOMALY,BSTAR,MEAN_MOTION_DOT,MEAN_MOTION_DDOT,TLE_LINE0,TLE_LINE1,TLE_LINE2,SEMIMAJOR_AXIS,PERIOD,APOGEE,PERIGEE,DECAYED
52646.0,STARLINK-3832,PAYLOAD,2024-07-05 04:56:06,15.08842713,0.0001394,53.2166,128.7114,100.6898,259.4252,0.00016562,2.349e-05,0.0,0 STARLINK-3832,1 52646U 22052BA  24187.20562731  .00002349  00000-0  16562-3 0  9993,2 52646  53.2166 128.7114 0001394 100.6898 259.4252 15.08842713119044,6917.872,95.437,540.701,538.773,0.0
52646.0,STARLINK-3832,PAYLOAD,2024-07-05 12:53:02,15.08840051,0.0001368,53.2173,127.224,93.1,267.0149,0.0001011,1.321e-05,0.0,0 STARLINK-3832,1 52646U 22052BA  24187.53682905  .00001321  00000-0  10110-3 0  9997,2 52646  53.2173 127.2240 0001368  93.1000 267.0149 15.08840051118725,6917.88,95.438,540.692,538.799,0.0
52646.0,STARLINK-3832,PAYLOAD,2024-07-05 20:49:58,15.08832653,0.000146,53.2183,125.739,98.0716,262.0442,-4.2497e-05,-9.64e-06,0.0,0 STARLINK-3832,1 52646U 22052BA  24187.86803329 -.00000964  00000-0 -42497-4 0  9996,2 52646  53.2183 125.7390 0001460  98.0716 262.0442 15.08832653119143,6917.903,95.438,540.778,538.758,0.0
52646.0,STARLINK-3832,PAYLOAD,2024-07-06 12:43:48,15.08849669,0.0001302,53.2166,122.7626,88.6858,271.4283,0.00013108,1.799e-05,0.0,0 STARLINK-3832,1 52646U 22052BA  24188.53042370  .00001799  00000-0  13108-3 0  9993,2 52646  53.2166 122.7626 0001302  88.6858 271.4283 15.08849669119243,6917.851,95.437,540.617,538.815,0.0
52646.0,STARLINK-3832,PAYLOAD,2024-07-07 01:26:53,15.08858248,0.000141,53.2167,120.3839,83.7203,276.395,0.00023489,3.454e-05,0.0,0 STARLINK-3832,1 52646U 22052BA  24189.06033839  .00003454  00000-0  23489-3 0  9995,2 52646  53.2167 120.3839 0001410  83.7203 276.3950 15.08858248118959,6917.825,95.436,540.665,538.714,0.0
52646.0,STARLINK-3832,PAYLOAD,2024-07-08 04:28:27,15.08842061,0.0001462,53.2168,115.3278,84.1819,275.934,5.2311e-05,5.45e-06,0.0,0 STARLINK-3832,1 52646U 22052BA  24190.18642619  .00000545  00000-0  52311-4 0  9997,2 52646  53.2168 115.3278 0001462  84.1819 275.9340 15.08842061119490,6917.874,95.437,540.75,538.728,0.0
52646.0,STARLINK-3832,PAYLOAD,2024-07-09 04:19:15,15.08823435,0.0002039,53.2178,110.8634,113.403,246.7177,0.00050992,7.833e-05,0.0,0 STARLINK-3832,1 52646U 22052BA  24191.18003969  .00007833  00000-0  50992-3 0  9996,2 52646  53.2178 110.8634 0002039 113.4030 246.7177 15.08823435119644,6917.931,95.439,541.207,538.385,0.0
52646.0,STARLINK-3832,PAYLOAD,2024-07-09 12:16:10,15.08833861,0.0001555,53.2167,109.3774,102.9916,257.125,0.0001228,1.667e-05,0.0,0 STARLINK-3832,1 52646U 22052BA  24191.51123591  .00001667  00000-0  12280-3 0  9994,2 52646  53.2167 109.3774 0001555 102.9916 257.1250 15.08833861119695,6917.899,95.438,540.84,538.688,0.0
52646.0,STARLINK-3832,PAYLOAD,2024-07-09 21:48:29,15.08837379,0.0001457,53.2161,107.5933,103.2264,256.889,0.00014212,1.974e-05,0.0,0 STARLINK-3832,1 52646U 22052BA  24191.90867575  .00001974  00000-0  14212-3 0  9992,2 52646  53.2161 107.5933 0001457 103.2264 256.8890 15.08837379119387,6917.888,95.438,540.761,538.745,0.0
52646.0,STARLINK-3832,PAYLOAD,2024-07-10 04:10:02,15.08841116,0.0001557,53.2172,106.4047,96.8886,263.2283,0.00020814,3.026e-05,0.0,0 STARLINK-3832,1 52646U 22052BA  24192.17363441  .00003026  00000-0  20814-3 0  9990,2 52646  53.2172 106.4047 0001557  96.8886 263.2283 15.08841116119428,6917.877,95.437,540.819,538.665,0.0
52646.0,STARLINK-3832,PAYLOAD,2024-07-10 21:39:17,15.08824846,0.0001725,53.2166,103.1334,110.4015,249.7163,0.00046679,7.146e-05,0.0,0 STARLINK-3832,1 52646U 22052BA  24192.90228390  .00007146  00000-0  46679-3 0  9998,2 52646  53.2166 103.1334 0001725 110.4015 249.7163 15.08824846119537,6917.927,95.439,540.985,538.598,0.0
52646.0,STARLINK-3832,PAYLOAD,2024-07-11 04:00:49,15.0883451,0.0001706,53.2168,101.9432,107.9983,252.1196,0.00031091,4.663e-05,0.0,0 STARLINK-3832,1 52646U 22052BA  24193.16724061  .00004663  00000-0  31091-3 0  9996,2 52646  53.2168 101.9432 0001706 107.9983 252.1196 15.08834510119946,6917.897,95.438,540.942,538.582,0.0
52646.0,STARLINK-3832,PAYLOAD,2024-07-12 00:40:49,15.08843279,0.000133,53.2164,98.0809,87.8244,272.29,0.00010773,1.427e-05,0.0,0 STARLINK-3832,1 52646U 22052BA  24194.02835556  .00001427  00000-0  10773-3 0  9993,2 52646  53.2164  98.0809 0001330  87.8244 272.2900 15.08843279119707,6917.87,95.437,540.655,538.815,0.0
52646.0,STARLINK-3832,PAYLOAD,2024-07-12 18:10:04,15.08841293,0.0001446,53.2171,94.8131,104.3472,255.7681,-3.6172e-06,-3.46e-06,0.0,0 STARLINK-3832,1 52646U 22052BA  24194.75699584 -.00000346  00000-0 -36172-5 0  9996,2 52646  53.2171  94.8131 0001446 104.3472 255.7681 15.08841293120183,6917.876,95.437,540.742,538.741,0.0
52646.0,STARLINK-3832,PAYLOAD,2024-07-12 22:56:13,15.08843629,0.0001343,53.2172,93.9211,98.444,261.6704,4.1451e-05,3.72e-06,0.0,0 STARLINK-3832,1 52646U 22052BA  24194.95571717  .00000372  00000-0  41451-4 0  9997,2 52646  53.2172  93.9211 0001343  98.4440 261.6704 15.08843629119845,6917.869,95.437,540.663,538.805,0.0
52646.0,STARLINK-3832,PAYLOAD,2024-07-13 10:03:56,15.08840466,0.0001324,53.2171,91.839,89.4147,270.6997,-3.5142e-05,-8.47e-06,0.0,0 STARLINK-3832,1 52646U 22052BA  24195.41940011 -.00000847  00000-0 -35142-4 0  9995,2 52646  53.2171  91.8390 0001324  89.4147 270.6997 15.08840466119910,6917.879,95.438,540.66,538.828,0.0
52646.0,STARLINK-3832,PAYLOAD,2024-07-13 21:11:38,15.08839736,0.0001217,53.2177,89.7549,85.8301,274.2831,-5.3396e-05,-1.138e-05,0.0,0 STARLINK-3832,1 52646U 22052BA  24195.88308383 -.00001138  00000-0 -53396-4 0  9991,2 52646  53.2177  89.7549 0001217  85.8301 274.2831 15.08839736120356,6917.881,95.438,540.588,538.904,0.0
52646.0,STARLINK-3832,PAYLOAD,2024-07-13 22:47:01,15.08842554,0.0001414,53.2173,89.4579,90.4858,269.6296,-1.1112e-05,-4.65e-06,0.0,0 STARLINK-3832,1 52646U 22052BA  24195.94932117 -.00000465  00000-0 -11112-4 0  9998,2 52646  53.2173  89.4579 0001414  90.4858 269.6296 15.08842554119993,6917.873,95.437,540.716,538.759,0.0
52646.0,STARLINK-3832,PAYLOAD,2024-07-14 01:57:46,15.08847434,0.0001297,53.2169,88.8639,105.0871,255.0265,0.00015062,2.111e-05,0.0,0 STARLINK-3832,1 52646U 22052BA  24196.08179327  .00002111  00000-0  15062-3 0  9995,2 52646  53.2169  88.8639 0001297 105.0871 255.0265 15.08847434120387,6917.858,95.437,540.62,538.825,0.0
52646.0,STARLINK-3832,PAYLOAD,2024-07-14 22:37:48,15.08843185,0.0001471,53.2179,84.9989,98.7106,261.4053,9.7585e-05,1.266e-05,0.0,0 STARLINK-3832,1 52646U 22052BA  24196.94291812  .00001266  00000-0  97585-4 0  9995,2 52646  53.2179  84.9989 0001471  98.7106 261.4053 15.08843185120145,6917.871,95.437,540.753,538.718,0.0
52646.0,STARLINK-3832,PAYLOAD,2024-07-15 01:48:33,15.08849312,0.0001358,53.2178,84.4006,96.599,263.5157,0.00017617,2.518e-05,0.0,0 STARLINK-3832,1 52646U 22052BA  24197.07539197  .00002518  00000-0  17617-3 0  9999,2 52646  53.2178  84.4006 0001358  96.5990 263.5157 15.08849312120539,6917.852,95.437,540.656,538.777,0.0
52646.0,STARLINK-3832,PAYLOAD,2024-07-15 09:45:30,15.08838711,0.0001409,53.2161,82.9149,84.5973,275.518,1.5142e-05,-4.7e-07,0.0,0 STARLINK-3832,1 52646U 22052BA  24197.40660001 -.00000047  00000-0  15142-4 0  9993,2 52646  53.2161  82.9149 0001409  84.5973 275.5180 15.08838711120582,6917.884,95.438,540.724,538.775,0.0
52646.0,STARLINK-3832,PAYLOAD,2024-07-15 22:28:35,15.08834116,0.0001142,53.2154,80.5349,89.2485,270.8638,6.7677e-05,7.89e-06,0.0,0 STARLINK-3832,1 52646U 22052BA  24197.93652303  .00000789  00000-0  67677-4 0  9999,2 52646  53.2154  80.5349 0001142  89.2485 270.8638 15.08834116120293,6917.898,95.438,540.553,538.973,0.0
52646.0,STARLINK-3832,PAYLOAD,2024-07-16 22:19:21,15.08852348,0.0001323,53.2158,76.0739,95.9648,264.1495,0.00012564,1.713e-05,0.0,0 STARLINK-3832,1 52646U 22052BA  24198.93011293  .00001713  00000-0  12564-3 0  9999,2 52646  53.2158  76.0739 0001323  95.9648 264.1495 15.08852348120447,6917.843,95.437,540.623,538.792,0.0
52646.0,STARLINK-3832,PAYLOAD,2024-07-17 01:30:07,15.08856581,0.000133,53.216,75.475,99.5458,260.5684,0.00018765,2.701e-05,0.0,0 STARLINK-3832,1 52646U 22052BA  24199.06258942  .00002701  00000-0  18765-3 0  9995,2 52646  53.2160  75.4750 0001330  99.5458 260.5684 15.08856581120839,6917.83,95.437,540.615,538.775,0.0
52646.0,STARLINK-3832,PAYLOAD,2024-07-17 09:27:04,15.08834823,0.0001881,53.2169,73.9939,90.5902,269.5306,-9.9615e-05,-1.873e-05,0.0,0 STARLINK-3832,1 52646U 22052BA  24199.39380295 -.00001873  00000-0 -99615-4 0  9993,2 52646  53.2169  73.9939 0001881  90.5902 269.5306 15.08834823120886,6917.896,95.438,541.062,538.46,0.0
52646.0,STARLINK-3832,PAYLOAD,2024-07-17 22:10:09,15.08834127,0.0001537,53.2175,71.6166,92.7458,267.371,-9.4804e-06,-4.39e-06,0.0,0 STARLINK-3832,1 52646U 22052BA  24199.92372655 -.00000439  00000-0 -94804-5 0  9996,2 52646  53.2175  71.6166 0001537  92.7458 267.3710 15.08834127120598,6917.898,95.438,540.827,538.7,0.0
52646.0,STARLINK-3832,PAYLOAD,2024-07-18 20:25:33,15.0883966,0.0001546,53.2181,67.4517,104.4378,255.6786,0.00016332,2.312e-05,0.0,0 STARLINK-3832,1 52646U 22052BA  24200.85108670  .00002312  00000-0  16332-3 0  9993,2 52646  53.2181  67.4517 0001546 104.4378 255.6786 15.08839660121108,6917.881,95.438,540.816,538.677,0.0
52646.0,STARLINK-3832,PAYLOAD,2024-07-18 22:00:56,15.08844184,0.0001521,53.2181,67.1539,100.9547,259.1617,0.0001969,2.847e-05,0.0,0 STARLINK-3832,1 52646U 22052BA  24200.91732532  .00002847  00000-0  19690-3 0  9993,2 52646  53.2181  67.1539 0001521 100.9547 259.1617 15.08844184120749,6917.868,95.437,540.785,538.68,0.0
52646.0,STARLINK-3832,PAYLOAD,2024-07-19 07:33:15,15.08843131,0.0001406,53.2175,65.3684,85.0151,275.1002,0.00027847,4.147e-05,0.0,0 STARLINK-3832,1 52646U 22052BA  24201.31476762  .00004147  00000-0  27847-3 0  9996,2 52646  53.2175  65.3684 0001406  85.0151 275.1002 15.08843131120803,6917.871,95.437,540.708,538.763,0.0
